HULIANWANG DIGUI-106    
1 66916U 25285B   25358.23288255  .00000025  00000+0  11165-3 0  9991
2 66916  50.0064  70.4470 0006884 314.4139  45.6201 14.03704298  2523
HULIANWANG DIGUI-107    
1 66917U 25285C   25358.23113527  .00000022  00000+0  10953-3 0  9992
2 66917  50.0029  70.4299 0007524 323.7772  36.2622 14.03664294  2526
HULIANWANG DIGUI-108    
1 66918U 25285D   25358.23050800  .00000026  00000+0  11223-3 0  9992
2 66918  50.0062  70.4312 0006671 318.3811  41.6585 14.03603392  2526
HULIANWANG DIGUI-109    
1 66919U 25285E   25358.22878644  .00000036  00000+0  11843-3 0  9995
2 66919  50.0076  70.4274 0007922 330.7129  29.3331 14.03727586  2523
HULIANWANG DIGUI-110    
1 66920U 25285F   25358.22803477  .00000022  00000+0  10967-3 0  9990
2 66920  50.0120  70.4307 0005633 327.8066  32.2493 14.03683783  2528
HULIANWANG DIGUI-111    
1 66921U 25285G   25358.22727316  .00000025  00000+0  11193-3 0  9993
2 66921  50.0124  70.4301 0006715 331.6097  28.4441 14.03633335  2524
HULIANWANG DIGUI-112    
1 66922U 25285H   25358.22618421  .00000037  00000+0  11926-3 0  9997
2 66922  50.0096  70.4165 0006532 342.2388  17.8287 14.03663350  2529
HULIANWANG DIGUI-113    
1 66923U 25285J   25358.22496793  .00000032  00000+0  11621-3 0  9991
2 66923  50.0096  70.4116 0005136 336.7773  23.2899 14.03701269  2523
CZ-8A R/B               
1 66924U 25285K   25357.62881421 -.00000009  00000+0  55403-4 0  9993
2 66924  50.0083  69.8031 0119246 145.1331 215.7469 14.30505924  2484
STARLINK-35945          
1 66925U 25286A   25358.16668980 -.01965777  00000+0 -20180-1 0  9993
2 66925  53.1594 353.3180 0001426  78.9011  29.1285 15.67426028  3820
STARLINK-35942          
1 66926U 25286B   25358.16668980 -.02043979  00000+0 -22632-1 0  9990
2 66926  53.1596 353.3328 0001282  81.7960  19.0879 15.65706655  3824
STARLINK-35943          
1 66927U 25286C   25358.16668980 -.02047570  00000+0 -22674-1 0  9998
2 66927  53.1594 353.3287 0001390  80.6930  22.1060 15.65709490  3829
