CCSDS_OMM_VERS = 2.0
CREATION_DATE  = 
ORIGINATOR     = 

OBJECT_NAME    = HULIANWANG DIGUI-106
OBJECT_ID      = 2025-285B
CENTER_NAME    = EARTH
REF_FRAME      = TEME
TIME_SYSTEM    = UTC
MEAN_ELEMENT_THEORY = SGP/SGP4

EPOCH          = 2025-12-24T05:35:21.052320
MEAN_MOTION    = 14.03704298
ECCENTRICITY   = .0006884
INCLINATION    = 50.0064
RA_OF_ASC_NODE = 70.4470
ARG_OF_PERICENTER = 314.4139
MEAN_ANOMALY   = 45.6201

EPHEMERIS_TYPE = 0
CLASSIFICATION_TYPE = U
NORAD_CAT_ID   = 66916
ELEMENT_SET_NO = 999
REV_AT_EPOCH   = 252
BSTAR          = .11165E-3
MEAN_MOTION_DOT = .25E-6
MEAN_MOTION_DDOT = 0

CCSDS_OMM_VERS = 2.0
CREATION_DATE  = 
ORIGINATOR     = 

OBJECT_NAME    = HULIANWANG DIGUI-107
OBJECT_ID      = 2025-285C
CENTER_NAME    = EARTH
REF_FRAME      = TEME
TIME_SYSTEM    = UTC
MEAN_ELEMENT_THEORY = SGP/SGP4

EPOCH          = 2025-12-24T05:32:50.087328
MEAN_MOTION    = 14.03664294
ECCENTRICITY   = .0007524
INCLINATION    = 50.0029
RA_OF_ASC_NODE = 70.4299
ARG_OF_PERICENTER = 323.7772
MEAN_ANOMALY   = 36.2622

EPHEMERIS_TYPE = 0
CLASSIFICATION_TYPE = U
NORAD_CAT_ID   = 66917
ELEMENT_SET_NO = 999
REV_AT_EPOCH   = 252
BSTAR          = .10953E-3
MEAN_MOTION_DOT = .22E-6
MEAN_MOTION_DDOT = 0

CCSDS_OMM_VERS = 2.0
CREATION_DATE  = 
ORIGINATOR     = 

OBJECT_NAME    = HULIANWANG DIGUI-108
OBJECT_ID      = 2025-285D
CENTER_NAME    = EARTH
REF_FRAME      = TEME
TIME_SYSTEM    = UTC
MEAN_ELEMENT_THEORY = SGP/SGP4

EPOCH          = 2025-12-24T05:31:55.891200
MEAN_MOTION    = 14.03603392
ECCENTRICITY   = .0006671
INCLINATION    = 50.0062
RA_OF_ASC_NODE = 70.4312
ARG_OF_PERICENTER = 318.3811
MEAN_ANOMALY   = 41.6585

EPHEMERIS_TYPE = 0
CLASSIFICATION_TYPE = U
NORAD_CAT_ID   = 66918
ELEMENT_SET_NO = 999
REV_AT_EPOCH   = 252
BSTAR          = .11223E-3
MEAN_MOTION_DOT = .26E-6
MEAN_MOTION_DDOT = 0

CCSDS_OMM_VERS = 2.0
CREATION_DATE  = 
ORIGINATOR     = 

OBJECT_NAME    = HULIANWANG DIGUI-109
OBJECT_ID      = 2025-285E
CENTER_NAME    = EARTH
REF_FRAME      = TEME
TIME_SYSTEM    = UTC
MEAN_ELEMENT_THEORY = SGP/SGP4

EPOCH          = 2025-12-24T05:29:27.148416
MEAN_MOTION    = 14.03727586
ECCENTRICITY   = .0007922
INCLINATION    = 50.0076
RA_OF_ASC_NODE = 70.4274
ARG_OF_PERICENTER = 330.7129
MEAN_ANOMALY   = 29.3331

EPHEMERIS_TYPE = 0
CLASSIFICATION_TYPE = U
NORAD_CAT_ID   = 66919
ELEMENT_SET_NO = 999
REV_AT_EPOCH   = 252
BSTAR          = .11843E-3
MEAN_MOTION_DOT = .36E-6
MEAN_MOTION_DDOT = 0

CCSDS_OMM_VERS = 2.0
CREATION_DATE  = 
ORIGINATOR     = 

OBJECT_NAME    = HULIANWANG DIGUI-110
OBJECT_ID      = 2025-285F
CENTER_NAME    = EARTH
REF_FRAME      = TEME
TIME_SYSTEM    = UTC
MEAN_ELEMENT_THEORY = SGP/SGP4

EPOCH          = 2025-12-24T05:28:22.204128
MEAN_MOTION    = 14.03683783
ECCENTRICITY   = .0005633
INCLINATION    = 50.0120
RA_OF_ASC_NODE = 70.4307
ARG_OF_PERICENTER = 327.8066
MEAN_ANOMALY   = 32.2493

EPHEMERIS_TYPE = 0
CLASSIFICATION_TYPE = U
NORAD_CAT_ID   = 66920
ELEMENT_SET_NO = 999
REV_AT_EPOCH   = 252
BSTAR          = .10967E-3
MEAN_MOTION_DOT = .22E-6
MEAN_MOTION_DDOT = 0

CCSDS_OMM_VERS = 2.0
CREATION_DATE  = 
ORIGINATOR     = 

OBJECT_NAME    = HULIANWANG DIGUI-111
OBJECT_ID      = 2025-285G
CENTER_NAME    = EARTH
REF_FRAME      = TEME
TIME_SYSTEM    = UTC
MEAN_ELEMENT_THEORY = SGP/SGP4

EPOCH          = 2025-12-24T05:27:16.401024
MEAN_MOTION    = 14.03633335
ECCENTRICITY   = .0006715
INCLINATION    = 50.0124
RA_OF_ASC_NODE = 70.4301
ARG_OF_PERICENTER = 331.6097
MEAN_ANOMALY   = 28.4441

EPHEMERIS_TYPE = 0
CLASSIFICATION_TYPE = U
NORAD_CAT_ID   = 66921
ELEMENT_SET_NO = 999
REV_AT_EPOCH   = 252
BSTAR          = .11193E-3
MEAN_MOTION_DOT = .25E-6
MEAN_MOTION_DDOT = 0

CCSDS_OMM_VERS = 2.0
CREATION_DATE  = 
ORIGINATOR     = 

OBJECT_NAME    = HULIANWANG DIGUI-112
OBJECT_ID      = 2025-285H
CENTER_NAME    = EARTH
REF_FRAME      = TEME
TIME_SYSTEM    = UTC
MEAN_ELEMENT_THEORY = SGP/SGP4

EPOCH          = 2025-12-24T05:25:42.315744
MEAN_MOTION    = 14.03663350
ECCENTRICITY   = .0006532
INCLINATION    = 50.0096
RA_OF_ASC_NODE = 70.4165
ARG_OF_PERICENTER = 342.2388
MEAN_ANOMALY   = 17.8287

EPHEMERIS_TYPE = 0
CLASSIFICATION_TYPE = U
NORAD_CAT_ID   = 66922
ELEMENT_SET_NO = 999
REV_AT_EPOCH   = 252
BSTAR          = .11926E-3
MEAN_MOTION_DOT = .37E-6
MEAN_MOTION_DDOT = 0

CCSDS_OMM_VERS = 2.0
CREATION_DATE  = 
ORIGINATOR     = 

OBJECT_NAME    = HULIANWANG DIGUI-113
OBJECT_ID      = 2025-285J
CENTER_NAME    = EARTH
REF_FRAME      = TEME
TIME_SYSTEM    = UTC
MEAN_ELEMENT_THEORY = SGP/SGP4

EPOCH          = 2025-12-24T05:23:57.229152
MEAN_MOTION    = 14.03701269
ECCENTRICITY   = .0005136
INCLINATION    = 50.0096
RA_OF_ASC_NODE = 70.4116
ARG_OF_PERICENTER = 336.7773
MEAN_ANOMALY   = 23.2899

EPHEMERIS_TYPE = 0
CLASSIFICATION_TYPE = U
NORAD_CAT_ID   = 66923
ELEMENT_SET_NO = 999
REV_AT_EPOCH   = 252
BSTAR          = .11621E-3
MEAN_MOTION_DOT = .32E-6
MEAN_MOTION_DDOT = 0

CCSDS_OMM_VERS = 2.0
CREATION_DATE  = 
ORIGINATOR     = 

OBJECT_NAME    = CZ-8A R/B
OBJECT_ID      = 2025-285K
CENTER_NAME    = EARTH
REF_FRAME      = TEME
TIME_SYSTEM    = UTC
MEAN_ELEMENT_THEORY = SGP/SGP4

EPOCH          = 2025-12-23T15:05:29.547744
MEAN_MOTION    = 14.30505924
ECCENTRICITY   = .01192463
INCLINATION    = 50.0083
RA_OF_ASC_NODE = 69.8031
ARG_OF_PERICENTER = 145.1331
MEAN_ANOMALY   = 215.7469

EPHEMERIS_TYPE = 0
CLASSIFICATION_TYPE = U
NORAD_CAT_ID   = 66924
ELEMENT_SET_NO = 999
REV_AT_EPOCH   = 248
BSTAR          = .55403296E-4
MEAN_MOTION_DOT = -.9E-7
MEAN_MOTION_DDOT = 0

CCSDS_OMM_VERS = 2.0
CREATION_DATE  = 
ORIGINATOR     = 

OBJECT_NAME    = STARLINK-35945
OBJECT_ID      = 2025-286A
CENTER_NAME    = EARTH
REF_FRAME      = TEME
TIME_SYSTEM    = UTC
MEAN_ELEMENT_THEORY = SGP/SGP4

EPOCH          = 2025-12-24T04:00:01.998720
MEAN_MOTION    = 15.67426028
ECCENTRICITY   = .0001426
INCLINATION    = 53.1594
RA_OF_ASC_NODE = 353.3180
ARG_OF_PERICENTER = 78.9011
MEAN_ANOMALY   = 29.1285

EPHEMERIS_TYPE = 0
CLASSIFICATION_TYPE = U
NORAD_CAT_ID   = 66925
ELEMENT_SET_NO = 999
REV_AT_EPOCH   = 382
BSTAR          = -.2018E-1
MEAN_MOTION_DOT = -.1965777E-1
MEAN_MOTION_DDOT = 0

CCSDS_OMM_VERS = 2.0
CREATION_DATE  = 
ORIGINATOR     = 

OBJECT_NAME    = STARLINK-35942
OBJECT_ID      = 2025-286B
CENTER_NAME    = EARTH
REF_FRAME      = TEME
TIME_SYSTEM    = UTC
MEAN_ELEMENT_THEORY = SGP/SGP4

EPOCH          = 2025-12-24T04:00:01.998720
MEAN_MOTION    = 15.65706655
ECCENTRICITY   = .0001282
INCLINATION    = 53.1596
RA_OF_ASC_NODE = 353.3328
ARG_OF_PERICENTER = 81.7960
MEAN_ANOMALY   = 19.0879

EPHEMERIS_TYPE = 0
CLASSIFICATION_TYPE = U
NORAD_CAT_ID   = 66926
ELEMENT_SET_NO = 999
REV_AT_EPOCH   = 382
BSTAR          = -.22632E-1
MEAN_MOTION_DOT = -.2043979E-1
MEAN_MOTION_DDOT = 0

CCSDS_OMM_VERS = 2.0
CREATION_DATE  = 
ORIGINATOR     = 

OBJECT_NAME    = STARLINK-35943
OBJECT_ID      = 2025-286C
CENTER_NAME    = EARTH
REF_FRAME      = TEME
TIME_SYSTEM    = UTC
MEAN_ELEMENT_THEORY = SGP/SGP4

EPOCH          = 2025-12-24T04:00:01.998720
MEAN_MOTION    = 15.65709490
ECCENTRICITY   = .000139
INCLINATION    = 53.1594
RA_OF_ASC_NODE = 353.3287
ARG_OF_PERICENTER = 80.6930
MEAN_ANOMALY   = 22.1060

EPHEMERIS_TYPE = 0
CLASSIFICATION_TYPE = U
NORAD_CAT_ID   = 66927
ELEMENT_SET_NO = 999
REV_AT_EPOCH   = 382
BSTAR          = -.22674E-1
MEAN_MOTION_DOT = -.204757E-1
MEAN_MOTION_DDOT = 0

